From:	Horizons Ephemeris System <horizons@ssd.jpl.nasa.gov>
Sent:	Wednesday, March 11, 2020 3:06 PM
Subject:	[Horizons] MAJOR BODY #C(usr={0.,-89.9,.600^G}@301)_T(301) (1/1)

 Automated mail xmit by MAIL_REQUEST, PID= 29381 Wed Mar 11 13:06:15 2020
++++++++++++++++++++++++++++++++ (part 1 of 1)  +++++++++++++++++++++++++++++++
*******************************************************************************
 Revised: July 31, 2013             Moon / (Earth)                          301
 
 GEOPHYSICAL DATA (updated 2018-Aug-15):
  Vol. mean radius, km  = 1737.53+-0.03    Mass, x10^22 kg       =    7.349
  Radius (gravity), km  = 1738.0           Surface emissivity    =    0.92
  Radius (IAU), km      = 1737.4           GM, km^3/s^2          = 4902.800066
  Density, g/cm^3       =    3.3437        GM 1-sigma, km^3/s^2  =  +-0.0001  
  V(1,0)                =   +0.21          Surface accel., m/s^2 =    1.62
  Earth/Moon mass ratio = 81.3005690769    Farside crust. thick. = ~80 - 90 km
  Mean crustal density  = 2.97+-.07 g/cm^3 Nearside crust. thick.= 58+-8 km 
  Heat flow, Apollo 15  = 3.1+-.6 mW/m^2   Mean angular diameter = 31'05.2"
  Heat flow, Apollo 17  = 2.2+-.5 mW/m^2   Sid. rot. rate, rad/s = 0.0000026617
  Geometric Albedo      = 0.12             Mean solar day        = 29.5306 d
  Obliquity to orbit    = 6.67 deg         Orbit period          = 27.321582 d
  Semi-major axis, a    = 384400 km        Eccentricity          = 0.05490
  Mean motion, rad/s    = 2.6616995x10^-6  Inclination           = 5.145 deg
  Apsidal period        = 3231.50 d        Nodal period          = 6798.38 d
                                 Perihelion  Aphelion    Mean
  Solar Constant (W/m^2)         1414+-7     1323+-7     1368+-7
  Maximum Planetary IR (W/m^2)   1314        1226        1268
  Minimum Planetary IR (W/m^2)      5.2         5.2         5.2
 *******************************************************************************
 
 
*******************************************************************************
Ephemeris / MAIL_REQUEST Wed Mar 11 13:06:14 2020 Pasadena, USA  / Horizons    
*******************************************************************************
Target body name: Moon (301)                      {source: DE431mx}
Center body name: Moon (301)                      {source: DE431mx}
Center-site name: (user defined site below)
*******************************************************************************
Start time      : A.D. 2020-Jan-01 00:00:00.0000 TDB
Stop  time      : A.D. 2039-Jan-01 00:00:00.0000 TDB
Step-size       : 10000 steps
*******************************************************************************
Center geodetic : 0.00000000,-89.900000,0.6000000 {E-lon(deg),Lat(deg),Alt(km)}
Center cylindric: 0.00000000,3.03338070,-1737.997 {E-lon(deg),Dxy(km),Dz(km)}
Center pole/equ : IAU_MOON                        {East-longitude positive}
Center radii    : 1737.4 x 1737.4 x 1737.4 km     {Equator, meridian, pole}    
Output units    : KM-S                                                         
Output type     : GEOMETRIC cartesian states
Output format   : 3 (position, velocity, LT, range, range-rate)
Reference frame : ICRF/J2000.0                                                 
Coordinate systm: Ecliptic and Mean Equinox of Reference Epoch                 
*******************************************************************************
JDTDB
   X     Y     Z
   VX    VY    VZ
   LT    RG    RR
*******************************************************************************
$$SOE
2459440.094000000 = A.D. 2021-Aug-13 14:15:21.6000 TDB 
  -4.537356718710537E+01  1.670857961182037E+01  1.737327275664569E+03
   5.680120877191462E-06 -5.909869449636337E-06  2.051846393250701E-07
   5.797343974543886E-03  1.738000000000000E+03  4.990573866446510E-22
2459440.788000000 = A.D. 2021-Aug-14 06:54:43.2000 TDB 
  -4.500360969888125E+01  1.638410856638166E+01  1.737339988632207E+03
   6.628818198263297E-06 -4.886961702633178E-06  2.177980478956667E-07
   5.797343974543886E-03  1.738000000000000E+03  2.807197799876162E-22
2459441.482000000 = A.D. 2021-Aug-14 23:34:04.8000 TDB 
  -4.458255158996484E+01  1.612522874087529E+01  1.737353266636289E+03
   7.380999587722035E-06 -3.728617034164362E-06  2.240123554270938E-07
   5.797343974543885E-03  1.738000000000000E+03 -1.247643466611627E-22
2459442.176000000 = A.D. 2021-Aug-15 16:13:26.4000 TDB 
  -4.412273143481217E+01  1.593886137535230E+01  1.737366725037863E+03
   7.919594249637863E-06 -2.475224760222215E-06  2.238366770072686E-07
   5.797343974543884E-03  1.738000000000001E+03  3.119108666529068E-22
2459442.870000000 = A.D. 2021-Aug-16 08:52:48.0000 TDB 
  -4.363725087556177E+01  1.582946066717602E+01  1.737379986793624E+03
   8.236207634052596E-06 -1.168327227921271E-06  2.175111095809058E-07
   5.797343974543885E-03  1.738000000000001E+03 -9.357325999587203E-23
2459443.564000000 = A.D. 2021-Aug-17 01:32:09.6000 TDB 
  -4.313946222247192E+01  1.579900709162644E+01  1.737392695441672E+03
   8.330771829792056E-06  1.514326310538974E-07  2.054760172297552E-07
   5.797343974543886E-03  1.738000000000000E+03  9.357325999587205E-23
2459444.258000000 = A.D. 2021-Aug-17 18:11:31.2000 TDB 
  -4.264249202295566E+01  1.584711677513314E+01  1.737404525942070E+03
   8.210710664992919E-06  1.446106288833205E-06  1.883318156023228E-07
   5.797343974543886E-03  1.738000000000000E+03 -1.871465199917441E-22
2459444.952000000 = A.D. 2021-Aug-18 10:50:52.8000 TDB 
  -4.215882659248509E+01  1.597124761453540E+01  1.737415192920213E+03
   7.889728826740984E-06  2.681854334144039E-06  1.667932633560679E-07
   5.797343974543885E-03  1.738000000000001E+03  6.238217333058136E-23
2459445.646000000 = A.D. 2021-Aug-19 03:30:14.4000 TDB 
  -4.169997805212576E+01  1.616697668877475E+01  1.737424456111747E+03
   7.386361794442362E-06  3.829900147553735E-06  1.416425430422524E-07
   5.797343974543886E-03  1.738000000000000E+03 -2.495286933223255E-22
2459446.340000000 = A.D. 2021-Aug-19 20:09:36.0000 TDB 
  -4.127624075850130E+01  1.642832009706433E+01  1.737432123061973E+03
   6.722436043960207E-06  4.866990115168163E-06  1.136852568172834E-07
   5.797343974543885E-03  1.738000000000000E+03  2.807197799876162E-22
2459447.034000000 = A.D. 2021-Aug-20 12:48:57.6000 TDB 
  -4.089653905505814E+01  1.674806590591595E+01  1.737438049365137E+03
   5.921586311880846E-06  5.775377515673065E-06  8.371290283463169E-08
   5.797343974543886E-03  1.738000000000000E+03  3.586974966508429E-22
2459447.728000000 = A.D. 2021-Aug-21 05:28:19.2000 TDB 
  -4.056835891267501E+01  1.711809331824338E+01  1.737442136917452E+03
   5.007959792696943E-06  6.542393006633288E-06  5.247450510205696E-08
   5.797343974543886E-03  1.738000000000000E+03 -7.797771666322671E-24
2459448.422000000 = A.D. 2021-Aug-21 22:07:40.8000 TDB 
  -4.029774905179076E+01  1.752965612885862E+01  1.737444330785123E+03
   4.005208342500905E-06  7.159702237616196E-06  2.065894247074364E-08
   5.797343974543886E-03  1.738000000000001E+03  4.405740991472309E-22
2459449.116000000 = A.D. 2021-Aug-22 14:47:02.4000 TDB 
  -4.008937216547017E+01  1.797361540131044E+01  1.737444615344266E+03
   2.935832354116571E-06  7.622377059592565E-06 -1.111171986881190E-08
   5.797343974543886E-03  1.738000000000001E+03 -2.573264649886481E-22
2459449.810000000 = A.D. 2021-Aug-23 07:26:24.0000 TDB 
  -3.994658429673721E+01  1.844061431797763E+01  1.737443010330584E+03
   1.820897761973560E-06  7.927918826445576E-06 -4.227882413496904E-08
   5.797343974543886E-03  1.738000000000000E+03  1.052699174953561E-21
2459450.504000000 = A.D. 2021-Aug-24 00:05:45.6000 TDB 
  -3.987152043134350E+01  1.892119645012303E+01  1.737439567347132E+03
   6.801046708869465E-07  8.075369494463849E-06 -7.233566432659210E-08
   5.797343974543886E-03  1.738000000000000E+03 -7.953727099649125E-22
2459451.198000000 = A.D. 2021-Aug-24 16:45:07.2000 TDB 
  -3.986516687313370E+01  1.940587638698980E+01  1.737434367229978E+03
  -4.678536051444748E-07  8.064629115040810E-06 -1.008108628781929E-07
   5.797343974543886E-03  1.738000000000001E+03  8.265637966302029E-22
2459451.892000000 = A.D. 2021-Aug-25 09:24:28.8000 TDB 
  -3.992740566362080E+01  1.988517794261224E+01  1.737427518481034E+03
  -1.604735004014080E-06  7.896068719327627E-06 -1.272499915346637E-07
   5.797343974543886E-03  1.738000000000000E+03  1.824678569919505E-21
2459452.586000000 = A.D. 2021-Aug-26 02:03:50.4000 TDB 
  -4.005702266939723E+01  2.034965936284971E+01  1.737419156766346E+03
  -2.712113026013470E-06  7.570488544898650E-06 -1.511989982618572E-07
   5.797343974543886E-03  1.738000000000000E+03  1.247643466611627E-22
2459453.280000000 = A.D. 2021-Aug-26 18:43:12.0000 TDB 
  -4.025167829744668E+01  2.078994663194942E+01  1.737409445269963E+03
  -3.770786984243549E-06  7.089427046046216E-06 -1.721927524745813E-07
   5.797343974543886E-03  1.738000000000001E+03 -1.559554333264534E-22
2459453.974000000 = A.D. 2021-Aug-27 11:22:33.6000 TDB 
  -4.050784730184559E+01  2.119679493671026E+01  1.737398575512074E+03
  -4.760359998850861E-06  6.455780777421869E-06 -1.897513914637953E-07
   5.797343974543885E-03  1.738000000000000E+03  6.238217333058137E-23
2459454.668000000 = A.D. 2021-Aug-28 04:01:55.2000 TDB 
  -4.082074096872426E+01  2.156119468093232E+01  1.737386768106255E+03
  -5.659088278925930E-06  5.674653856995346E-06 -2.033862003541794E-07
   5.797343974543885E-03  1.738000000000001E+03  1.247643466611627E-22
2459455.362000000 = A.D. 2021-Aug-28 20:41:16.8000 TDB 
  -4.118423031160503E+01  2.187453252924729E+01  1.737374272861282E+03
  -6.444074584843580E-06  4.754322814219849E-06 -2.126155812663211E-07
   5.797343974543885E-03  1.738000000000000E+03 -2.495286933223255E-22
